     2.11           N: GPS NAV DATA                         RINEX VERSION / TYPE
teqc  2019Feb25     RGS-CENTRE          20220111 11:15:03UTCPGM / RUN BY / DATE
Linux 2.4.21-27.ELsmp|Opteron|gcc -static|Linux 64|=+       COMMENT
    7.4506D-09 -1.4901D-08 -5.9605D-08  1.1921D-07          ION ALPHA
    9.0112D+04 -6.5536D+04 -1.3107D+05  4.5875D+05          ION BETA
    2.793967723846D-09 2.664535259100D-15   589824     2191 DELTA-UTC: A0,A1,T,W
                                                            END OF HEADER
29 22  1  6  6  0  0.0-4.636789672077D-04-5.002220859751D-12 0.000000000000D+00
    2.600000000000D+01 1.049687500000D+02 3.864089526267D-09-1.249316257734D+00
    5.289912223816D-06 1.753632095642D-03 1.043081283569D-05 5.153774305344D+03
    3.672000000000D+05-9.313225746155D-09-2.145943516167D+00-2.607703208923D-08
    9.822709403046D-01 1.940625000000D+02 2.303707929974D+00-7.724607475193D-09
    3.928735076157D-11 1.000000000000D+00 2.191000000000D+03 0.000000000000D+00
    2.000000000000D+00 0.000000000000D+00-1.024454832077D-08 2.600000000000D+01
    3.639300000000D+05 4.000000000000D+00
 9 22  1  6  6  0  0.0-3.587268292904D-04 1.023181539495D-12 0.000000000000D+00
    3.300000000000D+01-5.193750000000D+01 4.456257049565D-09-9.484236928994D-01
   -2.766028046608D-06 2.350910450332D-03 1.119077205658D-05 5.153649431229D+03
    3.672000000000D+05-1.676380634308D-08 9.028894650618D-01 4.656612873077D-08
    9.539400892623D-01 1.611562500000D+02 1.857966780026D+00-7.918901282596D-09
    2.625109346341D-10 1.000000000000D+00 2.191000000000D+03 0.000000000000D+00
    2.000000000000D+00 0.000000000000D+00 1.396983861923D-09 3.300000000000D+01
    3.650400000000D+05 4.000000000000D+00
 2 22  1  6  6  0  0.0-6.478773429990D-04-1.023181539495D-12 0.000000000000D+00
    9.300000000000D+01 7.262500000000D+01 4.604477509256D-09 2.873211860190D+00
    3.872439265251D-06 2.065530628897D-02 2.043321728706D-06 5.153671407700D+03
    3.672000000000D+05 3.799796104431D-07-1.249230359573D+00-2.607703208923D-08
    9.647180533621D-01 3.383750000000D+02-1.461411895386D+00-8.069979004161D-09
    1.082187934614D-10 1.000000000000D+00 2.191000000000D+03 0.000000000000D+00
    2.000000000000D+00 0.000000000000D+00-1.769512891769D-08 9.300000000000D+01
    3.667800000000D+05 4.000000000000D+00
 2 22  1  6  8  0  0.0-6.478847935796D-04-1.023181539495D-12 0.000000000000D+00
    9.400000000000D+01 6.653125000000D+01 4.489829876579D-09-2.359779616716D+00
    3.740191459656D-06 2.065375109669D-02 2.570450305939D-06 5.153674261093D+03
    3.744000000000D+05 1.713633537292D-07-1.249289430742D+00 2.197921276093D-07
    9.647200326902D-01 3.280937500000D+02-1.461423458290D+00-7.998547457321D-09
    3.375140588153D-10 1.000000000000D+00 2.191000000000D+03 0.000000000000D+00
    2.000000000000D+00 0.000000000000D+00-1.769512891769D-08 9.400000000000D+01
    3.672000000000D+05 4.000000000000D+00
 3 22  1  6  8  0  0.0-6.762007251382D-05-1.432454155292D-11 0.000000000000D+00
    7.000000000000D+01-1.088125000000D+02 4.369824877889D-09 2.582874774485D+00
   -5.720183253288D-06 3.847082378343D-03 4.820525646210D-06 5.153706468582D+03
    3.744000000000D+05-7.450580596924D-09-1.253234388300D-01-2.607703208923D-08
    9.724267407227D-01 2.900000000000D+02 9.845948617452D-01-8.137838973658D-09
   -2.757257707994D-10 1.000000000000D+00 2.191000000000D+03 0.000000000000D+00
    2.000000000000D+00 0.000000000000D+00 1.862645149231D-09 7.000000000000D+01
    3.672300000000D+05 4.000000000000D+00
 4 22  1  6  8  0  0.0-1.961793750525D-04 1.591615728103D-12 0.000000000000D+00
    5.200000000000D+01-6.037500000000D+01 4.201603585083D-09-6.964243460123D-01
   -3.200024366379D-06 1.640104572289D-03 1.175887882710D-05 5.153671575546D+03
    3.744000000000D+05 5.401670932770D-08 9.554693696944D-01-3.725290298462D-08
    9.609259019866D-01 1.527500000000D+02-3.113949330157D+00-7.787110078677D-09
    2.025084352892D-10 1.000000000000D+00 2.191000000000D+03 0.000000000000D+00
    2.000000000000D+00 0.000000000000D+00-4.190951585770D-09 5.200000000000D+01
    3.672600000000D+05 4.000000000000D+00
 6 22  1  6  8  0  0.0 1.629777252674D-04 1.068656274583D-11 0.000000000000D+00
    8.300000000000D+01 6.009375000000D+01 4.259820295757D-09-2.150693551191D+00
    3.257766366005D-06 2.589774318039D-03 3.427267074585D-06 5.153643909454D+03
    3.744000000000D+05-5.587935447693D-08-1.169092153381D+00 5.401670932770D-08
    9.857583248824D-01 3.273125000000D+02-1.008740172500D+00-8.094980045554D-09
    2.407243128482D-10 1.000000000000D+00 2.191000000000D+03 0.000000000000D+00
    2.000000000000D+00 0.000000000000D+00 4.190951585770D-09 8.300000000000D+01
    3.672900000000D+05 4.000000000000D+00
 9 22  1  6  8  0  0.0-3.587193787098D-04 1.023181539495D-12 0.000000000000D+00
    3.400000000000D+01-5.962500000000D+01 4.417326856537D-09 1.016282738198D-01
   -3.159046173096D-06 2.351625706069D-03 1.141801476479D-05 5.153650405884D+03
    3.744000000000D+05-4.470348358154D-08 9.028328574467D-01-3.725290298462D-08
    9.539417657664D-01 1.552187500000D+02 1.858110236698D+00-7.909615181506D-09
    1.921508609975D-10 1.000000000000D+00 2.191000000000D+03 0.000000000000D+00
    2.000000000000D+00 0.000000000000D+00 1.396983861923D-09 3.400000000000D+01
    3.673200000000D+05 4.000000000000D+00
16 22  1  6  8  0  0.0-4.515778273344D-04-5.570655048359D-12 0.000000000000D+00
    3.800000000000D+01 2.187500000000D-01 4.358038672661D-09 5.723745631609D-01
    1.620501279831D-07 1.260579470545D-02 8.404254913330D-06 5.153579576492D+03
    3.744000000000D+05-9.685754776001D-08 3.105996870905D+00 2.011656761169D-07
    9.711186242458D-01 2.234375000000D+02 6.932929888815D-01-8.017119659500D-09
   -5.668093241692D-10 1.000000000000D+00 2.191000000000D+03 0.000000000000D+00
    2.000000000000D+00 0.000000000000D+00-1.024454832077D-08 3.800000000000D+01
    3.673800000000D+05 4.000000000000D+00
26 22  1  6  8  0  0.0 1.718504354358D-04 3.410605131648D-12 0.000000000000D+00
    2.500000000000D+01-7.375000000000D+00 5.178429988109D-09 1.557851475270D+00
   -3.091990947723D-07 6.744699552655D-03 7.690861821175D-06 5.153676221848D+03
    3.744000000000D+05-2.793967723846D-08 2.964954238337D+00 9.499490261078D-08
    9.393505023475D-01 2.204375000000D+02 3.420109188590D-01-8.358205295657D-09
   -5.293077620786D-10 1.000000000000D+00 2.191000000000D+03 0.000000000000D+00
    2.000000000000D+00 0.000000000000D+00 6.984919309616D-09 2.500000000000D+01
    3.675000000000D+05 4.000000000000D+00
29 22  1  6  8  0  0.0-4.637148231268D-04-5.002220859751D-12 0.000000000000D+00
    3.400000000000D+01 9.678125000000D+01 3.831945330190D-09-1.999253105488D-01
    4.885718226433D-06 1.753037562594D-03 9.659677743912D-06 5.153771869659D+03
    3.744000000000D+05 1.117587089539D-08-2.145999263586D+00-3.725290298462D-09
    9.822713162745D-01 2.033437500000D+02 2.304433086762D+00-7.730321998940D-09
    5.964534161075D-11 1.000000000000D+00 2.191000000000D+03 0.000000000000D+00
    2.000000000000D+00 0.000000000000D+00-1.024454832077D-08 3.400000000000D+01
    3.675300000000D+05 4.000000000000D+00
31 22  1  6  8  0  0.0-1.586116850376D-04-1.818989403546D-12 0.000000000000D+00
    6.000000000000D+01 2.556250000000D+01 4.960206612515D-09 2.646608639496D+00
    1.225620508194D-06 1.045707019512D-02 6.768852472305D-06 5.153661077499D+03
    3.744000000000D+05-9.126961231232D-08 1.993043465895D+00-5.029141902924D-08
    9.548736080100D-01 2.485937500000D+02 3.626536818901D-01-8.120338244682D-09
    2.539391490134D-10 1.000000000000D+00 2.191000000000D+03 0.000000000000D+00
    2.000000000000D+00 0.000000000000D+00-1.303851604462D-08 6.000000000000D+01
    3.675600000000D+05 4.000000000000D+00
 7 22  1  6  8  0  0.0 2.989745698869D-04 3.865352482535D-12 0.000000000000D+00
    4.100000000000D+01 2.393750000000D+01 4.899489797702D-09 3.098109335958D+00
    1.100823283195D-06 1.540450297762D-02 6.897374987602D-06 5.153698801041D+03
    3.744000000000D+05 1.490116119385D-08 1.975103954573D+00-2.179294824600D-07
    9.506229210547D-01 2.397500000000D+02-2.297346868118D+00-7.921758544469D-09
    3.217991185107D-10 1.000000000000D+00 2.191000000000D+03 0.000000000000D+00
    2.000000000000D+00 0.000000000000D+00-1.117587089539D-08 4.100000000000D+01
    3.703200000000D+05 4.000000000000D+00
27 22  1  6  8  0  0.0 5.165627226233D-05 2.387423592154D-11 0.000000000000D+00
    1.010000000000D+02 8.656250000000D+01 4.046954286176D-09-2.992548777840D-01
    4.554167389870D-06 9.960922412574D-03 1.047179102898D-05 5.153654373169D+03
    3.744000000000D+05 6.705522537231D-08-2.221125417349D+00 9.126961231232D-08
    9.739449351616D-01 1.860625000000D+02 6.274951395656D-01-7.947473901331D-09
   -6.857428496565D-11 1.000000000000D+00 2.191000000000D+03 0.000000000000D+00
    4.000000000000D+00 0.000000000000D+00 1.862645149231D-09 1.010000000000D+02
    3.710700000000D+05 4.000000000000D+00
20 22  1  6  8  0  0.0 5.173021927476D-04-1.136868377216D-13 0.000000000000D+00
    8.100000000000D+01-9.859375000000D+01 5.161286416868D-09-1.453660659053D+00
   -4.975125193596D-06 5.348785780370D-03 3.617256879807D-06 5.153724321365D+03
    3.744000000000D+05 8.754432201385D-08-2.784159988810D-01-8.381903171539D-08
    9.415374990447D-01 2.977187500000D+02 3.092364121652D+00-8.618216126152D-09
   -1.160762636137D-10 1.000000000000D+00 2.191000000000D+03 0.000000000000D+00
    2.000000000000D+00 0.000000000000D+00-8.381903171539D-09 8.100000000000D+01
    3.720900000000D+05 4.000000000000D+00
